{
  "type": "FeatureCollection",
  "features": [
    {
      "type": "Feature",
      "properties": {
        "norad_id": 34619,
        "name": "COSMOS 2251 DEB",
        "group": "cosmos-2251-debris",
        "lat": 13.250317829916185,
        "lon": 174.68396295683365,
        "alt_km": 703.016390418602,
        "timestamp": "2025-12-27T21:25:02.911620+00:00",
        "meta_object_name": "COSMOS 2251 DEB",
        "meta_object_id": "1993-036WQ",
        "meta_epoch": "2025-12-27T04:57:42.584832",
        "meta_mean_motion": 14.64682848,
        "meta_eccentricity": 0.0094713,
        "meta_inclination": 74.043,
        "meta_ra_of_asc_node": 172.138,
        "meta_arg_of_pericenter": 263.6994,
        "meta_mean_anomaly": 95.338,
        "meta_ephemeris_type": 0,
        "meta_classification_type": "U",
        "meta_norad_cat_id": 34619,
        "meta_element_set_no": 999,
        "meta_rev_at_epoch": 89510,
        "meta_bstar": 0.00029362,
        "meta_mean_motion_dot": 1.634e-05,
        "meta_mean_motion_ddot": 0,
        "tle_line1": "1 34619U 93036WQ  25361.20674288  .00001634  00000+0  29362-3 0  9996",
        "tle_line2": "2 34619  74.0430 172.1380 0094713 263.6994  95.3380 14.64682848895100"
      },
      "geometry": {
        "type": "Point",
        "coordinates": [
          174.68396295683365,
          13.250317829916185
        ]
      }
    },
    {
      "type": "Feature",
      "properties": {
        "norad_id": 34620,
        "name": "COSMOS 2251 DEB",
        "group": "cosmos-2251-debris",
        "lat": 49.1929582985847,
        "lon": -8.203566605504324,
        "alt_km": 728.5448833793798,
        "timestamp": "2025-12-27T21:25:02.911629+00:00",
        "meta_object_name": "COSMOS 2251 DEB",
        "meta_object_id": "1993-036WR",
        "meta_epoch": "2025-12-26T15:00:09.946368",
        "meta_mean_motion": 14.49319824,
        "meta_eccentricity": 0.0079363,
        "meta_inclination": 74.0513,
        "meta_ra_of_asc_node": 193.5129,
        "meta_arg_of_pericenter": 226.8087,
        "meta_mean_anomaly": 132.6426,
        "meta_ephemeris_type": 0,
        "meta_classification_type": "U",
        "meta_norad_cat_id": 34620,
        "meta_element_set_no": 999,
        "meta_rev_at_epoch": 87028,
        "meta_bstar": 0.0024508,
        "meta_mean_motion_dot": 9.725e-05,
        "meta_mean_motion_ddot": 0,
        "tle_line1": "1 34620U 93036WR  25360.62511512  .00009725  00000+0  24508-2 0  9998",
        "tle_line2": "2 34620  74.0513 193.5129 0079363 226.8087 132.6426 14.49319824870282"
      },
      "geometry": {
        "type": "Point",
        "coordinates": [
          -8.203566605504324,
          49.1929582985847
        ]
      }
    },
    {
      "type": "Feature",
      "properties": {
        "norad_id": 34622,
        "name": "COSMOS 2251 DEB",
        "group": "cosmos-2251-debris",
        "lat": 73.94616621942237,
        "lon": 3.7136498900221966,
        "alt_km": 809.5460193952358,
        "timestamp": "2025-12-27T21:25:02.911640+00:00",
        "meta_object_name": "COSMOS 2251 DEB",
        "meta_object_id": "1993-036WT",
        "meta_epoch": "2025-12-26T11:47:44.253024",
        "meta_mean_motion": 14.22098383,
        "meta_eccentricity": 0.0105003,
        "meta_inclination": 74.0424,
        "meta_ra_of_asc_node": 282.3374,
        "meta_arg_of_pericenter": 1.5352,
        "meta_mean_anomaly": 116.3755,
        "meta_ephemeris_type": 0,
        "meta_classification_type": "U",
        "meta_norad_cat_id": 34622,
        "meta_element_set_no": 999,
        "meta_rev_at_epoch": 86655,
        "meta_bstar": 0.00087348,
        "meta_mean_motion_dot": 2.02e-05,
        "meta_mean_motion_ddot": 0,
        "tle_line1": "1 34622U 93036WT  25360.49148441  .00002020  00000+0  87348-3 0  9995",
        "tle_line2": "2 34622  74.0424 282.3374 0105003   1.5352 116.3755 14.22098383866552"
      },
      "geometry": {
        "type": "Point",
        "coordinates": [
          3.7136498900221966,
          73.94616621942237
        ]
      }
    },
    {
      "type": "Feature",
      "properties": {
        "norad_id": 34626,
        "name": "COSMOS 2251 DEB",
        "group": "cosmos-2251-debris",
        "lat": 48.64454271869849,
        "lon": 95.46805165670271,
        "alt_km": 655.2372974962027,
        "timestamp": "2025-12-27T21:25:02.911651+00:00",
        "meta_object_name": "COSMOS 2251 DEB",
        "meta_object_id": "1993-036WX",
        "meta_epoch": "2025-12-27T05:03:30.604032",
        "meta_mean_motion": 14.7238114,
        "meta_eccentricity": 0.0027226,
        "meta_inclination": 74.0482,
        "meta_ra_of_asc_node": 295.7551,
        "meta_arg_of_pericenter": 20.0689,
        "meta_mean_anomaly": 96.7371,
        "meta_ephemeris_type": 0,
        "meta_classification_type": "U",
        "meta_norad_cat_id": 34626,
        "meta_element_set_no": 999,
        "meta_rev_at_epoch": 89357,
        "meta_bstar": 0.0012251,
        "meta_mean_motion_dot": 7.78e-05,
        "meta_mean_motion_ddot": 0,
        "tle_line1": "1 34626U 93036WX  25361.21077088  .00007780  00000+0  12251-2 0  9996",
        "tle_line2": "2 34626  74.0482 295.7551 0027226  20.0689  96.7371 14.72381140893572"
      },
      "geometry": {
        "type": "Point",
        "coordinates": [
          95.46805165670271,
          48.64454271869849
        ]
      }
    },
    {
      "type": "Feature",
      "properties": {
        "norad_id": 34634,
        "name": "COSMOS 2251 DEB",
        "group": "cosmos-2251-debris",
        "lat": 65.0118400656129,
        "lon": 148.43469766776386,
        "alt_km": 669.480580039387,
        "timestamp": "2025-12-27T21:25:02.911661+00:00",
        "meta_object_name": "COSMOS 2251 DEB",
        "meta_object_id": "1993-036XF",
        "meta_epoch": "2025-12-27T01:24:44.209728",
        "meta_mean_motion": 14.55697426,
        "meta_eccentricity": 0.00436319,
        "meta_inclination": 74.0512,
        "meta_ra_of_asc_node": 7.8617,
        "meta_arg_of_pericenter": 110.8504,
        "meta_mean_anomaly": 312.1566,
        "meta_ephemeris_type": 0,
        "meta_classification_type": "U",
        "meta_norad_cat_id": 34634,
        "meta_element_set_no": 999,
        "meta_rev_at_epoch": 88990,
        "meta_bstar": 0.00035601002,
        "meta_mean_motion_dot": 1.547e-05,
        "meta_mean_motion_ddot": 0,
        "tle_line1": "1 34634U 93036XF  25361.05884502  .00001547  00000+0  35601-3 0  9994",
        "tle_line2": "2 34634  74.0512   7.8617 0043631 110.8504 312.1566 14.55697426889903"
      },
      "geometry": {
        "type": "Point",
        "coordinates": [
          148.43469766776386,
          65.0118400656129
        ]
      }
    },
    {
      "type": "Feature",
      "properties": {
        "norad_id": 34635,
        "name": "COSMOS 2251 DEB",
        "group": "cosmos-2251-debris",
        "lat": -54.554642222652944,
        "lon": 17.734110389453836,
        "alt_km": 691.22540527411,
        "timestamp": "2025-12-27T21:25:02.911671+00:00",
        "meta_object_name": "COSMOS 2251 DEB",
        "meta_object_id": "1993-036XG",
        "meta_epoch": "2025-12-27T03:56:58.020288",
        "meta_mean_motion": 14.68441224,
        "meta_eccentricity": 0.00275844,
        "meta_inclination": 74.0456,
        "meta_ra_of_asc_node": 42.8356,
        "meta_arg_of_pericenter": 106.2824,
        "meta_mean_anomaly": 309.9223,
        "meta_ephemeris_type": 0,
        "meta_classification_type": "U",
        "meta_norad_cat_id": 34635,
        "meta_element_set_no": 999,
        "meta_rev_at_epoch": 73431,
        "meta_bstar": 0.0011899124,
        "meta_mean_motion_dot": 6.904e-05,
        "meta_mean_motion_ddot": 0,
        "tle_line1": "1 34635U 93036XG  25361.16456042  .00006904  00000+0  11899-2 0  9995",
        "tle_line2": "2 34635  74.0456  42.8356 0027584 106.2824 309.9223 14.68441224734318"
      },
      "geometry": {
        "type": "Point",
        "coordinates": [
          17.734110389453836,
          -54.554642222652944
        ]
      }
    },
    {
      "type": "Feature",
      "properties": {
        "norad_id": 34637,
        "name": "COSMOS 2251 DEB",
        "group": "cosmos-2251-debris",
        "lat": 42.719833423293004,
        "lon": 87.57137999538676,
        "alt_km": 690.6254779867304,
        "timestamp": "2025-12-27T21:25:02.911682+00:00",
        "meta_object_name": "COSMOS 2251 DEB",
        "meta_object_id": "1993-036XJ",
        "meta_epoch": "2025-12-27T06:40:32.935008",
        "meta_mean_motion": 14.60219268,
        "meta_eccentricity": 0.0048663,
        "meta_inclination": 74.0492,
        "meta_ra_of_asc_node": 73.4289,
        "meta_arg_of_pericenter": 139.9632,
        "meta_mean_anomaly": 277.9643,
        "meta_ephemeris_type": 0,
        "meta_classification_type": "U",
        "meta_norad_cat_id": 34637,
        "meta_element_set_no": 999,
        "meta_rev_at_epoch": 88739,
        "meta_bstar": 0.0008852,
        "meta_mean_motion_dot": 4.312e-05,
        "meta_mean_motion_ddot": 0,
        "tle_line1": "1 34637U 93036XJ  25361.27815897  .00004312  00000+0  88520-3 0  9993",
        "tle_line2": "2 34637  74.0492  73.4289 0048663 139.9632 277.9643 14.60219268887396"
      },
      "geometry": {
        "type": "Point",
        "coordinates": [
          87.57137999538676,
          42.719833423293004
        ]
      }
    }
  ]
}